start=new Date('2021-10-24T00:00:00.000Z').valueOf();
sats=[{"EPHEMERIS_TYPE":"0","CENTER_NAME":"EARTH","INCLINATION":"53.0424","CLASSIFICATION_TYPE":"U","NORAD_CAT_ID":"47980","MEAN_ANOMALY":"98.1497","COUNTRY_CODE":"US","BSTAR":"-0.02873000000000","REF_FRAME":"TEME","GP_ID":"188025101","TIME_SYSTEM":"UTC","MEAN_MOTION":"15.35958500","MEAN_MOTION_DDOT":"0.0000000000000","DECAY_DATE":null,"OBJECT_ID":"2021-024D","ARG_OF_PERICENTER":"70.4646","SITE":"AFETR","OBJECT_NAME":"STARLINK-2312","ELEMENT_SET_NO":"999","FILE":"3181152","APOAPSIS":"459.036","EPOCH":"2021-10-24T00:00:02.000160","TLE_LINE2":"2 47980  53.0424 225.4478 0001403  70.4646  98.1497 15.35958500  3704","MEAN_MOTION_DOT":"-0.00934368","OBJECT_TYPE":"PAYLOAD","MEAN_ELEMENT_THEORY":"SGP4","PERIAPSIS":"457.118","LAUNCH_DATE":"2021-03-24","REV_AT_EPOCH":"370","TLE_LINE1":"1 47980U 21024D   21297.00002315 -.00934368  00000-0 -28730-1 0  9995","ECCENTRICITY":"0.00014030","RCS_SIZE":"LARGE","SEMIMAJOR_AXIS":"6836.212","RA_OF_ASC_NODE":"225.4478","PERIOD":"93.753"},{"CENTER_NAME":"EARTH","CLASSIFICATION_TYPE":"U","INCLINATION":"53.0556","EPHEMERIS_TYPE":"0","BSTAR":"0.00011091000000","GP_ID":"188023849","REF_FRAME":"TEME","NORAD_CAT_ID":"47981","MEAN_ANOMALY":"275.1615","COUNTRY_CODE":"US","MEAN_MOTION_DDOT":"0.0000000000000","MEAN_MOTION":"15.06382225","OBJECT_ID":"2021-024E","DECAY_DATE":null,"TIME_SYSTEM":"UTC","FILE":"3181152","ELEMENT_SET_NO":"999","APOAPSIS":"548.200","OBJECT_NAME":"STARLINK-2303","SITE":"AFETR","ARG_OF_PERICENTER":"84.9528","OBJECT_TYPE":"PAYLOAD","MEAN_MOTION_DOT":"0.00001370","EPOCH":"2021-10-23T12:49:16.260672","TLE_LINE2":"2 47981  53.0556 311.0270 0001346  84.9528 275.1615 15.06382225 33680","LAUNCH_DATE":"2021-03-24","PERIAPSIS":"546.336","MEAN_ELEMENT_THEORY":"SGP4","REV_AT_EPOCH":"3368","RA_OF_ASC_NODE":"311.0270","TLE_LINE1":"1 47981U 21024E   21296.53421598  .00001370  00000-0  11091-3 0  9991","RCS_SIZE":"LARGE","ECCENTRICITY":"0.00013460","SEMIMAJOR_AXIS":"6925.403","PERIOD":"95.593"},{"DECAY_DATE":null,"OBJECT_ID":"2021-024F","MEAN_MOTION":"15.04806024","MEAN_MOTION_DDOT":"0.0000000000000","TIME_SYSTEM":"UTC","OBJECT_NAME":"STARLINK-2317","ELEMENT_SET_NO":"999","FILE":"3181152","APOAPSIS":"553.530","ARG_OF_PERICENTER":"64.7059","SITE":"AFETR","INCLINATION":"53.0529","CLASSIFICATION_TYPE":"U","CENTER_NAME":"EARTH","EPHEMERIS_TYPE":"0","GP_ID":"188024099","REF_FRAME":"TEME","BSTAR":"-0.00502930000000","COUNTRY_CODE":"US","MEAN_ANOMALY":"100.8159","NORAD_CAT_ID":"47982","RA_OF_ASC_NODE":"238.1281","RCS_SIZE":"LARGE","SEMIMAJOR_AXIS":"6930.238","ECCENTRICITY":"0.00020590","TLE_LINE1":"1 47982U 21024F   21297.00002315 -.00071329  00000-0 -50293-2 0  9996","PERIOD":"95.693","MEAN_MOTION_DOT":"-0.00071329","OBJECT_TYPE":"PAYLOAD","TLE_LINE2":"2 47982  53.0529 238.1281 0002059  64.7059 100.8159 15.04806024  3612","EPOCH":"2021-10-24T00:00:02.000160","REV_AT_EPOCH":"361","MEAN_ELEMENT_THEORY":"SGP4","PERIAPSIS":"550.676","LAUNCH_DATE":"2021-03-24"},{"ECCENTRICITY":"0.00081740","RCS_SIZE":"LARGE","SEMIMAJOR_AXIS":"6727.686","TLE_LINE1":"1 47983U 21024G   21297.00002315 -.00078930  00000-0 -56002-3 0  9997","RA_OF_ASC_NODE":"222.4898","PERIOD":"91.529","TLE_LINE2":"2 47983  53.0450 222.4898 0008174 291.0640 194.5534 15.73273235  3706","EPOCH":"2021-10-24T00:00:02.000160","OBJECT_TYPE":"PAYLOAD","MEAN_MOTION_DOT":"-0.00078930","REV_AT_EPOCH":"370","LAUNCH_DATE":"2021-03-24","PERIAPSIS":"344.052","MEAN_ELEMENT_THEORY":"SGP4","TIME_SYSTEM":"UTC","OBJECT_ID":"2021-024G","DECAY_DATE":null,"MEAN_MOTION_DDOT":"0.0000000000000","MEAN_MOTION":"15.73273235","SITE":"AFETR","ARG_OF_PERICENTER":"291.0640","APOAPSIS":"355.051","FILE":"3181152","ELEMENT_SET_NO":"999","OBJECT_NAME":"STARLINK-2289","EPHEMERIS_TYPE":"0","CLASSIFICATION_TYPE":"U","INCLINATION":"53.0450","CENTER_NAME":"EARTH","COUNTRY_CODE":"US","MEAN_ANOMALY":"194.5534","NORAD_CAT_ID":"47983","GP_ID":"188024851","REF_FRAME":"TEME","BSTAR":"-0.00056002000000"},{"MEAN_ANOMALY":"17.3089","NORAD_CAT_ID":"47984","COUNTRY_CODE":"US","BSTAR":"-0.00076410000000","REF_FRAME":"TEME","GP_ID":"188025601","EPHEMERIS_TYPE":"0","CENTER_NAME":"EARTH","INCLINATION":"53.0442","CLASSIFICATION_TYPE":"U","ARG_OF_PERICENTER":"302.8635","SITE":"AFETR","OBJECT_NAME":"STARLINK-2316","APOAPSIS":"353.589","FILE":"3181152","ELEMENT_SET_NO":"999","TIME_SYSTEM":"UTC","MEAN_MOTION":"15.73255189","MEAN_MOTION_DDOT":"0.0000000000000","DECAY_DATE":null,"OBJECT_ID":"2021-024H","MEAN_ELEMENT_THEORY":"SGP4","PERIAPSIS":"345.617","LAUNCH_DATE":"2021-03-24","REV_AT_EPOCH":"371","EPOCH":"2021-10-24T00:00:02.000160","TLE_LINE2":"2 47984  53.0442 222.8168 0005925 302.8635  17.3089 15.73255189  3714","MEAN_MOTION_DOT":"-0.00106914","OBJECT_TYPE":"PAYLOAD","PERIOD":"91.530","TLE_LINE1":"1 47984U 21024H   21297.00002315 -.00106914  00000-0 -76410-3 0  9997","RCS_SIZE":"LARGE","ECCENTRICITY":"0.00059250","SEMIMAJOR_AXIS":"6727.738","RA_OF_ASC_NODE":"222.8168"},{"ARG_OF_PERICENTER":"65.6508","SITE":"AFETR","APOAPSIS":"553.533","FILE":"3181152","ELEMENT_SET_NO":"999","OBJECT_NAME":"STARLINK-2308","TIME_SYSTEM":"UTC","MEAN_MOTION_DDOT":"0.0000000000000","MEAN_MOTION":"15.04790837","OBJECT_ID":"2021-024J","DECAY_DATE":null,"MEAN_ANOMALY":"351.3868","NORAD_CAT_ID":"47985","COUNTRY_CODE":"US","BSTAR":"-0.00206450000000","REF_FRAME":"TEME","GP_ID":"188024349","EPHEMERIS_TYPE":"0","CENTER_NAME":"EARTH","CLASSIFICATION_TYPE":"U","INCLINATION":"53.0548","PERIOD":"95.694","TLE_LINE1":"1 47985U 21024J   21297.00002315 -.00029604  00000-0 -20645-2 0  9996","RCS_SIZE":"LARGE","SEMIMAJOR_AXIS":"6930.285","ECCENTRICITY":"0.00019960","RA_OF_ASC_NODE":"242.7419","LAUNCH_DATE":"2021-03-24","PERIAPSIS":"550.767","MEAN_ELEMENT_THEORY":"SGP4","REV_AT_EPOCH":"360","EPOCH":"2021-10-24T00:00:02.000160","TLE_LINE2":"2 47985  53.0548 242.7419 0001996  65.6508 351.3868 15.04790837  3601","OBJECT_TYPE":"PAYLOAD","MEAN_MOTION_DOT":"-0.00029604"},{"RCS_SIZE":"LARGE","ECCENTRICITY":"0.00045140","SEMIMAJOR_AXIS":"6739.848","TLE_LINE1":"1 47986U 21024K   21297.00002315 -.00764248  00000-0 -70976-2 0  9999","RA_OF_ASC_NODE":"217.9028","PERIOD":"91.777","TLE_LINE2":"2 47986  53.0286 217.9028 0004514 320.8471  63.6955 15.69017011  3714","EPOCH":"2021-10-24T00:00:02.000160","MEAN_MOTION_DOT":"-0.00764248","OBJECT_TYPE":"PAYLOAD","REV_AT_EPOCH":"371","MEAN_ELEMENT_THEORY":"SGP4","PERIAPSIS":"358.670","LAUNCH_DATE":"2021-03-24","TIME_SYSTEM":"UTC","DECAY_DATE":null,"OBJECT_ID":"2021-024K","MEAN_MOTION":"15.69017011","MEAN_MOTION_DDOT":"0.0000000000000","ARG_OF_PERICENTER":"320.8471","SITE":"AFETR","OBJECT_NAME":"STARLINK-2313","ELEMENT_SET_NO":"999","FILE":"3181152","APOAPSIS":"364.755","EPHEMERIS_TYPE":"0","INCLINATION":"53.0286","CLASSIFICATION_TYPE":"U","CENTER_NAME":"EARTH","COUNTRY_CODE":"US","MEAN_ANOMALY":"63.6955","NORAD_CAT_ID":"47986","GP_ID":"188024599","REF_FRAME":"TEME","BSTAR":"-0.00709760000000"},{"BSTAR":"0.00006304900000","GP_ID":"188025351","REF_FRAME":"TEME","NORAD_CAT_ID":"47987","MEAN_ANOMALY":"112.3891","COUNTRY_CODE":"US","CENTER_NAME":"EARTH","CLASSIFICATION_TYPE":"U","INCLINATION":"53.0444","EPHEMERIS_TYPE":"0","ELEMENT_SET_NO":"999","FILE":"3181152","APOAPSIS":"351.860","OBJECT_NAME":"STARLINK-2311","ARG_OF_PERICENTER":"13.9295","SITE":"AFETR","MEAN_MOTION_DDOT":"0.0000000000000","MEAN_MOTION":"15.73207488","OBJECT_ID":"2021-024L","DECAY_DATE":null,"TIME_SYSTEM":"UTC","LAUNCH_DATE":"2021-03-24","MEAN_ELEMENT_THEORY":"SGP4","PERIAPSIS":"347.618","REV_AT_EPOCH":"370","OBJECT_TYPE":"PAYLOAD","MEAN_MOTION_DOT":"0.00008240","EPOCH":"2021-10-24T00:00:02.000160","TLE_LINE2":"2 47987  53.0444 222.4764 0003153  13.9295 112.3891 15.73207488  3705","PERIOD":"91.533","RA_OF_ASC_NODE":"222.4764","TLE_LINE1":"1 47987U 21024L   21297.00002315  .00008240  00000-0  63049-4 0  9996","RCS_SIZE":"LARGE","ECCENTRICITY":"0.00031530","SEMIMAJOR_AXIS":"6727.874"},{"PERIOD":"95.593","RA_OF_ASC_NODE":"285.2996","SEMIMAJOR_AXIS":"6925.367","RCS_SIZE":"LARGE","ECCENTRICITY":"0.00015350","TLE_LINE1":"1 47988U 21024M   21296.69315140 -.00000392  00000-0 -74337-5 0  9999","REV_AT_EPOCH":"3399","LAUNCH_DATE":"2021-03-24","MEAN_ELEMENT_THEORY":"SGP4","PERIAPSIS":"546.169","OBJECT_TYPE":"PAYLOAD","MEAN_MOTION_DOT":"-0.00000392","TLE_LINE2":"2 47988  53.0566 285.2996 0001535  76.2852 283.8308 15.06394104 33997","EPOCH":"2021-10-23T16:38:08.280960","ELEMENT_SET_NO":"999","FILE":"3181152","APOAPSIS":"548.295","OBJECT_NAME":"STARLINK-2306","SITE":"AFETR","ARG_OF_PERICENTER":"76.2852","OBJECT_ID":"2021-024M","DECAY_DATE":null,"MEAN_MOTION_DDOT":"0.0000000000000","MEAN_MOTION":"15.06394104","TIME_SYSTEM":"UTC","GP_ID":"188025102","REF_FRAME":"TEME","BSTAR":"-0.00000743370000","COUNTRY_CODE":"US","MEAN_ANOMALY":"283.8308","NORAD_CAT_ID":"47988","CLASSIFICATION_TYPE":"U","INCLINATION":"53.0566","CENTER_NAME":"EARTH","EPHEMERIS_TYPE":"0"},{"PERIOD":"92.519","RA_OF_ASC_NODE":"223.3270","RCS_SIZE":"MEDIUM","ECCENTRICITY":"0.00011670","SEMIMAJOR_AXIS":"6776.129","TLE_LINE1":"1 47989U 21024N   21297.00002315 -.00950274  00000-0 -14596-1 0  9993","REV_AT_EPOCH":"371","LAUNCH_DATE":"2021-03-24","PERIAPSIS":"397.203","MEAN_ELEMENT_THEORY":"SGP4","OBJECT_TYPE":"PAYLOAD","MEAN_MOTION_DOT":"-0.00950274","TLE_LINE2":"2 47989  53.0436 223.3270 0001167  66.0354  10.5987 15.56432331  3712","EPOCH":"2021-10-24T00:00:02.000160","FILE":"3181152","APOAPSIS":"398.785","ELEMENT_SET_NO":"999","OBJECT_NAME":"STARLINK-2305","ARG_OF_PERICENTER":"66.0354","SITE":"AFETR","OBJECT_ID":"2021-024N","DECAY_DATE":null,"MEAN_MOTION_DDOT":"0.0000000000000","MEAN_MOTION":"15.56432331","TIME_SYSTEM":"UTC","GP_ID":"188023850","REF_FRAME":"TEME","BSTAR":"-0.01459600000000","COUNTRY_CODE":"US","MEAN_ANOMALY":"10.5987","NORAD_CAT_ID":"47989","CLASSIFICATION_TYPE":"U","INCLINATION":"53.0436","CENTER_NAME":"EARTH","EPHEMERIS_TYPE":"0"}];
